NORAD_CAT_ID,OBJECT_NAME,OBJECT_TYPE,EPOCH,MEAN_MOTION,ECCENTRICITY,INCLINATION,RA_OF_ASC_NODE,ARG_OF_PERICENTER,MEAN_ANOMALY,BSTAR,MEAN_MOTION_DOT,MEAN_MOTION_DDOT,TLE_LINE0,TLE_LINE1,TLE_LINE2,SEMIMAJOR_AXIS,PERIOD,APOGEE,PERIGEE,DECAYED
50156.0,STARLINK-3317,PAYLOAD,2023-10-17 12:21:41,15.08868058,0.0002665,53.2163,213.4431,82.2987,277.8307,0.0012871,0.00020272,0.0,0 STARLINK-3317,1 50156U 21125A   23290.51506671  .00020272  00000-0  12871-2 0  9999,2 50156  53.2163 213.4431 0002665  82.2987 277.8307 15.08868058104156,6917.795,95.436,541.503,537.816,0.0
50156.0,STARLINK-3317,PAYLOAD,2023-10-18 01:04:46,15.0885814,0.0002393,53.2153,211.066,82.9614,277.165,0.0005498,8.477e-05,0.0,0 STARLINK-3317,1 50156U 21125A   23291.04498078  .00008477  00000-0  54980-3 0  9990,2 50156  53.2153 211.0660 0002393  82.9614 277.1650 15.08858140104745,6917.825,95.436,541.345,538.035,0.0
50156.0,STARLINK-3317,PAYLOAD,2023-10-18 12:12:28,15.08838968,0.0001355,53.2158,208.9819,95.8816,264.233,0.00054998,8.476e-05,0.0,0 STARLINK-3317,1 50156U 21125A   23291.50866022  .00008476  00000-0  54998-3 0  9997,2 50156  53.2158 208.9819 0001355  95.8816 264.2330 15.08838968104305,6917.884,95.438,540.686,538.811,0.0
50156.0,STARLINK-3317,PAYLOAD,2023-10-19 04:06:19,15.08850907,0.0001412,53.218,206.0068,94.7103,265.405,0.00061858,9.573e-05,0.0,0 STARLINK-3317,1 50156U 21125A   23292.17106103  .00009573  00000-0  61858-3 0  9990,2 50156  53.2180 206.0068 0001412  94.7103 265.4050 15.08850907104912,6917.847,95.437,540.689,538.735,0.0
50156.0,STARLINK-3317,PAYLOAD,2023-10-20 03:57:06,15.08860299,0.0001448,53.2166,201.5469,93.9179,266.1979,0.00050299,7.731e-05,0.0,0 STARLINK-3317,1 50156U 21125A   23293.16465322  .00007731  00000-0  50299-3 0  9992,2 50156  53.2166 201.5469 0001448  93.9179 266.1979 15.08860299104557,6917.818,95.436,540.685,538.682,0.0
50156.0,STARLINK-3317,PAYLOAD,2023-10-20 18:15:34,15.0884415,0.0001392,53.2187,198.8701,99.5369,260.5781,5.0229e-05,5.12e-06,0.0,0 STARLINK-3317,1 50156U 21125A   23293.76081493  .00000512  00000-0  50229-4 0  9995,2 50156  53.2187 198.8701 0001392  99.5369 260.5781 15.08844150104645,6917.868,95.437,540.696,538.77,0.0
50156.0,STARLINK-3317,PAYLOAD,2023-10-20 21:26:20,15.08848146,0.0001292,53.2173,198.2756,102.4224,257.6913,0.00021931,3.205e-05,0.0,0 STARLINK-3317,1 50156U 21125A   23293.89329365  .00003205  00000-0  21931-3 0  9991,2 50156  53.2173 198.2756 0001292 102.4224 257.6913 15.08848146105179,6917.855,95.437,540.614,538.827,0.0
50156.0,STARLINK-3317,PAYLOAD,2023-10-21 10:09:25,15.0885354,0.000106,53.2169,195.8998,79.8282,280.2829,0.00070856,0.00011011,0.0,0 STARLINK-3317,1 50156U 21125A   23294.42321284  .00011011  00000-0  70856-3 0  9997,2 50156  53.2169 195.8998 0001060  79.8282 280.2829 15.08853540105250,6917.839,95.437,540.437,538.971,0.0
50156.0,STARLINK-3317,PAYLOAD,2023-10-21 22:52:30,15.08842417,0.0001182,53.2164,193.5202,91.9254,268.1874,0.00068409,0.00010617,0.0,0 STARLINK-3317,1 50156U 21125A   23294.95313392  .00010617  00000-0  68409-3 0  9998,2 50156  53.2164 193.5202 0001182  91.9254 268.1874 15.08842417105332,6917.873,95.437,540.556,538.92,0.0
50156.0,STARLINK-3317,PAYLOAD,2023-10-22 03:38:39,15.08854418,0.0001025,53.2162,192.6295,84.319,275.792,0.001084,0.00017013,0.0,0 STARLINK-3317,1 50156U 21125A   23295.15185113  .00017013  00000-0  10840-2 0  9991,2 50156  53.2162 192.6295 0001025  84.3190 275.7920 15.08854418104859,6917.836,95.437,540.41,538.992,0.0
50156.0,STARLINK-3317,PAYLOAD,2023-10-22 10:00:13,15.08824774,0.0002044,53.2165,191.4378,86.4762,273.6464,-4.2813e-05,-9.69e-06,0.0,0 STARLINK-3317,1 50156U 21125A   23295.41682222 -.00000969  00000-0 -42813-4 0  9994,2 50156  53.2165 191.4378 0002044  86.4762 273.6464 15.08824774104897,6917.927,95.439,541.206,538.378,0.0
50156.0,STARLINK-3317,PAYLOAD,2023-10-22 22:43:19,15.08811448,0.000135,53.2176,189.0589,100.5216,259.5928,-0.00023104,-3.96e-05,0.0,0 STARLINK-3317,1 50156U 21125A   23295.94674845 -.00003960  00000-0 -23104-3 0  9999,2 50156  53.2176 189.0589 0001350 100.5216 259.5928 15.08811448105485,6917.968,95.439,540.767,538.899,0.0
50156.0,STARLINK-3317,PAYLOAD,2023-10-23 20:58:43,15.08843256,0.0001195,53.2169,184.8973,110.0333,250.0788,0.00078017,0.00012151,0.0,0 STARLINK-3317,1 50156U 21125A   23296.87411138  .00012151  00000-0  78017-3 0  9999,2 50156  53.2169 184.8973 0001195 110.0333 250.0788 15.08843256105112,6917.87,95.437,540.562,538.909,0.0
50156.0,STARLINK-3317,PAYLOAD,2023-10-23 22:34:06,15.08848334,0.0001108,53.2164,184.6016,111.7277,248.3833,0.00091687,0.00014337,0.0,0 STARLINK-3317,1 50156U 21125A   23296.94035090  .00014337  00000-0  91687-3 0  9992,2 50156  53.2164 184.6016 0001108 111.7277 248.3833 15.08848334105632,6917.855,95.437,540.486,538.953,0.0
50156.0,STARLINK-3317,PAYLOAD,2023-10-24 09:41:48,15.08851246,0.0001361,53.2156,182.5177,99.1502,260.9645,0.00054929,8.467e-05,0.0,0 STARLINK-3317,1 50156U 21125A   23297.40402950  .00008467  00000-0  54929-3 0  9992,2 50156  53.2156 182.5177 0001361  99.1502 260.9645 15.08851246105704,6917.846,95.437,540.653,538.769,0.0
50156.0,STARLINK-3317,PAYLOAD,2023-10-25 22:15:40,15.08844016,0.0001132,53.2165,175.6779,99.8517,260.2603,0.00084252,0.00013148,0.0,0 STARLINK-3317,1 50156U 21125A   23298.92755078  .00013148  00000-0  84252-3 0  9996,2 50156  53.2165 175.6779 0001132  99.8517 260.2603 15.08844016105427,6917.868,95.437,540.516,538.95,0.0
50156.0,STARLINK-3317,PAYLOAD,2023-10-26 20:31:04,15.08852737,0.0001135,53.2173,171.5145,104.2279,255.8839,0.00052453,8.073e-05,0.0,0 STARLINK-3317,1 50156U 21125A   23299.85490750  .00008073  00000-0  52453-3 0  9991,2 50156  53.2173 171.5145 0001135 104.2279 255.8839 15.08852737106079,6917.841,95.437,540.492,538.921,0.0
50156.0,STARLINK-3317,PAYLOAD,2023-10-26 22:06:27,15.08855782,0.0001171,53.217,171.2168,105.2268,254.8853,0.00059084,9.132e-05,0.0,0 STARLINK-3317,1 50156U 21125A   23299.92114628  .00009132  00000-0  59084-3 0  9990,2 50156  53.2170 171.2168 0001171 105.2268 254.8853 15.08855782105579,6917.832,95.437,540.507,538.887,0.0
50156.0,STARLINK-3317,PAYLOAD,2023-10-27 21:57:14,15.08848794,0.0001172,53.2172,166.755,103.1069,257.0054,0.00028548,4.26e-05,0.0,0 STARLINK-3317,1 50156U 21125A   23300.91474601  .00004260  00000-0  28548-3 0  9990,2 50156  53.2172 166.7550 0001172 103.1069 257.0054 15.08848794106239,6917.854,95.437,540.529,538.908,0.0
50156.0,STARLINK-3317,PAYLOAD,2023-10-28 01:08:00,15.08847602,0.0001059,53.2172,166.1631,101.078,259.0332,0.00022986,3.373e-05,0.0,0 STARLINK-3317,1 50156U 21125A   23301.04722573  .00003373  00000-0  22986-3 0  9993,2 50156  53.2172 166.1631 0001059 101.0780 259.0332 15.08847602106254,6917.857,95.437,540.455,538.99,0.0
50156.0,STARLINK-3317,PAYLOAD,2023-10-28 20:12:38,15.08837182,0.0001077,53.2164,162.5922,99.2376,260.8738,-7.4459e-05,-1.472e-05,0.0,0 STARLINK-3317,1 50156U 21125A   23301.84211251 -.00001472  00000-0 -74459-4 0  9990,2 50156  53.2164 162.5922 0001077  99.2376 260.8738 15.08837182105865,6917.889,95.438,540.499,539.009,0.0
50156.0,STARLINK-3317,PAYLOAD,2023-10-28 21:48:01,15.08838698,9.9e-05,53.2154,162.2977,87.8052,272.3053,-6.0815e-05,-1.255e-05,0.0,0 STARLINK-3317,1 50156U 21125A   23301.90835066 -.00001255  00000-0 -60815-4 0  9993,2 50156  53.2154 162.2977 0000990  87.8052 272.3053 15.08838698106387,6917.884,95.438,540.434,539.064,0.0
50156.0,STARLINK-3317,PAYLOAD,2023-10-29 07:20:20,15.0884389,9.75e-05,53.2156,160.5136,88.5327,271.5777,5.3574e-05,5.65e-06,0.0,0 STARLINK-3317,1 50156U 21125A   23302.30578883  .00000565  00000-0  53574-4 0  9994,2 50156  53.2156 160.5136 0000975  88.5327 271.5777 15.08843890105937,6917.868,95.437,540.408,539.059,0.0
50156.0,STARLINK-3317,PAYLOAD,2023-10-29 21:38:48,15.08847501,0.0001108,53.2159,157.8384,95.4899,264.622,0.0002868,4.28e-05,0.0,0 STARLINK-3317,1 50156U 21125A   23302.90195044  .00004280  00000-0  28680-3 0  9991,2 50156  53.2159 157.8384 0001108  95.4899 264.6220 15.08847501106530,6917.857,95.437,540.489,538.956,0.0
50156.0,STARLINK-3317,PAYLOAD,2023-10-30 19:54:12,15.08839838,0.0001224,53.2156,153.6729,109.4379,250.6745,9.647e-05,1.248e-05,0.0,0 STARLINK-3317,1 50156U 21125A   23303.82931474  .00001248  00000-0  96470-4 0  9992,2 50156  53.2156 153.6729 0001224 109.4379 250.6745 15.08839838106162,6917.881,95.438,540.593,538.899,0.0
50156.0,STARLINK-3317,PAYLOAD,2023-10-30 21:29:36,15.08838099,0.000105,53.2146,153.3779,95.7658,264.3454,6.8071e-05,7.96e-06,0.0,0 STARLINK-3317,1 50156U 21125A   23303.89555600  .00000796  00000-0  68071-4 0  9995,2 50156  53.2146 153.3779 0001050  95.7658 264.3454 15.08838099106681,6917.886,95.438,540.478,539.025,0.0
50156.0,STARLINK-3317,PAYLOAD,2023-10-31 07:01:54,15.08840156,0.00011,53.215,151.5929,81.5686,278.5431,7.7808e-05,9.51e-06,0.0,0 STARLINK-3317,1 50156U 21125A   23304.29299613  .00000951  00000-0  77808-4 0  9990,2 50156  53.2150 151.5929 0001100  81.5686 278.5431 15.08840156106749,6917.88,95.438,540.506,538.984,0.0
50156.0,STARLINK-3317,PAYLOAD,2023-10-31 21:20:22,15.08848287,0.000106,53.2153,148.9168,81.5153,278.5959,0.00021071,3.068e-05,0.0,0 STARLINK-3317,1 50156U 21125A   23304.88915248  .00003068  00000-0  21071-3 0  9996,2 50156  53.2153 148.9168 0001060  81.5153 278.5959 15.08848287106323,6917.855,95.437,540.453,538.987,0.0
50156.0,STARLINK-3317,PAYLOAD,2023-11-01 13:14:14,15.08843047,0.0001094,53.2147,145.9455,71.6333,288.4778,0.0001828,2.623e-05,0.0,0 STARLINK-3317,1 50156U 21125A   23305.55155407  .00002623  00000-0  18280-3 0  9998,2 50156  53.2147 145.9455 0001094  71.6333 288.4778 15.08843047106428,6917.871,95.437,540.493,538.979,0.0
50156.0,STARLINK-3317,PAYLOAD,2023-11-01 21:11:09,15.08844278,0.0001136,53.2157,144.4562,77.5342,282.5778,0.00019473,2.813e-05,0.0,0 STARLINK-3317,1 50156U 21125A   23305.88275407  .00002813  00000-0  19473-3 0  9993,2 50156  53.2157 144.4562 0001136  77.5342 282.5778 15.08844278106987,6917.867,95.437,540.518,538.946,0.0
